LIZZIESAT-2 (LS-2)      
1 62383U 24247G   26068.49140277  .00009388  00000+0  34517-3 0  9997
2 62383  44.9909 117.0823 0004092 327.5136  32.5495 15.28222796 67716
STARLINK-35433          
1 65870U 25223S   26068.85830157  .00045617  00000+0  15415-2 0  9999
2 65870  53.1583 293.2368 0000907 114.0354 246.0741 15.30228177 24242
